LEDSAT                  
1 49069U 21073D   23254.71466792  .00010659  00000+0  55894-3 0  9993
2 49069  97.4762 324.1844 0023581 177.1914 182.9455 15.15701327114002
SPORT                   
1 55129U 98067UW  23254.43756736  .00241785  32236-4  82673-3 0  9995
2 55129  51.6219 232.4202 0007543  76.6247 283.5599 15.89245738 40157
